{
  "links" : {
    "next" : "https://api.nasa.gov/neo/rest/v1/feed?start_date=2010-04-09&end_date=2010-04-09&detailed=true&api_key=t0TVs3DtDT2H8Oy2Zy8m2eVrNsAVKAexjcZXUckd",
    "prev" : "https://api.nasa.gov/neo/rest/v1/feed?start_date=2010-04-07&end_date=2010-04-07&detailed=true&api_key=t0TVs3DtDT2H8Oy2Zy8m2eVrNsAVKAexjcZXUckd",
    "self" : "https://api.nasa.gov/neo/rest/v1/feed?start_date=2010-04-08&end_date=2010-04-08&detailed=true&api_key=t0TVs3DtDT2H8Oy2Zy8m2eVrNsAVKAexjcZXUckd"
  },
  "element_count" : 5,
  "near_earth_objects" : {
    "2010-04-08" : [ {
      "links" : {
        "self" : "https://api.nasa.gov/neo/rest/v1/neo/3747358?api_key=t0TVs3DtDT2H8Oy2Zy8m2eVrNsAVKAexjcZXUckd"
      },
      "neo_reference_id" : "3747358",
      "name" : "(2016 EN158)",
      "nasa_jpl_url" : "http://ssd.jpl.nasa.gov/sbdb.cgi?sstr=3747358",
      "absolute_magnitude_h" : 21.6,
      "estimated_diameter" : {
        "kilometers" : {
          "estimated_diameter_min" : 0.1272198785,
          "estimated_diameter_max" : 0.2844722965
        },
        "meters" : {
          "estimated_diameter_min" : 127.2198785394,
          "estimated_diameter_max" : 284.4722965033
        },
        "miles" : {
          "estimated_diameter_min" : 0.0790507431,
          "estimated_diameter_max" : 0.1767628354
        },
        "feet" : {
          "estimated_diameter_min" : 417.3880663071,
          "estimated_diameter_max" : 933.3080892598
        }
      },
      "is_potentially_hazardous_asteroid" : false,
      "close_approach_data" : [ {
        "close_approach_date" : "2010-04-08",
        "epoch_date_close_approach" : 1270710000000,
        "relative_velocity" : {
          "kilometers_per_second" : "14.7095968211",
          "kilometers_per_hour" : "52954.548555785",
          "miles_per_hour" : "32903.8971290099"
        },
        "miss_distance" : {
          "astronomical" : "0.1883290291",
          "lunar" : "73.2599945068",
          "kilometers" : "28173622",
          "miles" : "17506276"
        },
        "orbiting_body" : "Earth"
      } ],
      "orbital_data" : {
        "orbit_id" : "8",
        "orbit_determination_date" : "2017-04-06 08:27:23",
        "orbit_uncertainty" : "7",
        "minimum_orbit_intersection" : ".118253",
        "jupiter_tisserand_invariant" : "4.767",
        "epoch_osculation" : "2458000.5",
        "eccentricity" : ".586961156997994",
        "semi_major_axis" : "1.313642263267937",
        "inclination" : "8.036258791314067",
        "ascending_node_longitude" : "314.8285193034843",
        "orbital_period" : "549.9384628662582",
        "perihelion_distance" : ".5425852805387255",
        "perihelion_argument" : "341.4445919592299",
        "aphelion_distance" : "2.084699245997149",
        "perihelion_time" : "2458100.730692977508",
        "mean_anomaly" : "294.3871143621429",
        "mean_motion" : ".6546186970151056",
        "equinox" : "J2000"
      }
    }, {
      "links" : {
        "self" : "https://api.nasa.gov/neo/rest/v1/neo/3752771?api_key=t0TVs3DtDT2H8Oy2Zy8m2eVrNsAVKAexjcZXUckd"
      },
      "neo_reference_id" : "3752771",
      "name" : "(2016 JQ5)",
      "nasa_jpl_url" : "http://ssd.jpl.nasa.gov/sbdb.cgi?sstr=3752771",
      "absolute_magnitude_h" : 28.1,
      "estimated_diameter" : {
        "kilometers" : {
          "estimated_diameter_min" : 0.0063760979,
          "estimated_diameter_max" : 0.0142573883
        },
        "meters" : {
          "estimated_diameter_min" : 6.3760978988,
          "estimated_diameter_max" : 14.2573883328
        },
        "miles" : {
          "estimated_diameter_min" : 0.0039619223,
          "estimated_diameter_max" : 0.0088591276
        },
        "feet" : {
          "estimated_diameter_min" : 20.9189570301,
          "estimated_diameter_max" : 46.7762099378
        }
      },
      "is_potentially_hazardous_asteroid" : false,
      "close_approach_data" : [ {
        "close_approach_date" : "2010-04-08",
        "epoch_date_close_approach" : 1270710000000,
        "relative_velocity" : {
          "kilometers_per_second" : "24.312826132",
          "kilometers_per_hour" : "87526.1740752454",
          "miles_per_hour" : "54385.360774699"
        },
        "miss_distance" : {
          "astronomical" : "0.4885898404",
          "lunar" : "190.0614471436",
          "kilometers" : "73092000",
          "miles" : "45417264"
        },
        "orbiting_body" : "Earth"
      } ],
      "orbital_data" : {
        "orbit_id" : "7",
        "orbit_determination_date" : "2017-04-06 08:26:11",
        "orbit_uncertainty" : "7",
        "minimum_orbit_intersection" : ".00316976",
        "jupiter_tisserand_invariant" : "4.276",
        "epoch_osculation" : "2458000.5",
        "eccentricity" : ".4289784150404714",
        "semi_major_axis" : "1.586131828405668",
        "inclination" : "3.437944922103364",
        "ascending_node_longitude" : "46.50941444151537",
        "orbital_period" : "729.6378365771935",
        "perihelion_distance" : ".9057155106109596",
        "perihelion_argument" : "231.8171465446949",
        "aphelion_distance" : "2.266548146200376",
        "perihelion_time" : "2458286.429985728839",
        "mean_anomaly" : "218.9234416004799",
        "mean_motion" : ".493395465466535",
        "equinox" : "J2000"
      }
    } ]
  }
}